ONEWEB-0331             
1 49198U 21083N   25251.94900935 -.00000002  00000+0 -36896-4 0  9998
2 49198  87.9179  31.2926 0002112  99.0644 261.0727 13.18686798192942
ONEWEB-0333             
1 49199U 21083P   25251.89249232  .00000037  00000+0  65119-4 0  9995
2 49199  87.9017  16.1469 0001690  96.8180 263.3141 13.13469757193987
ONEWEB-0334             
1 49200U 21083Q   25251.93332632  .00000108  00000+0  23450-3 0  9990
2 49200  87.9276 330.5342 0000990  79.5515 280.5729 13.20771455199665
ONEWEB-0335             
1 49201U 21083R   25251.88741190  .00000557  00000+0  14899-2 0  9992
2 49201  87.9019  16.1357 0002028  97.3996 262.7364 13.13468117193996
ONEWEB-0336             
1 49202U 21083S   25251.85863014  .00000047  00000+0  94650-4 0  9999
2 49202  87.9018  16.1351 0001770  94.7630 265.3702 13.13471005193983
ONEWEB-0337             
1 49203U 21083T   25251.86863563  .00000296  00000+0  77637-3 0  9991
2 49203  87.9030  16.1367 0001875 104.4941 255.6397 13.13470708193986
ONEWEB-0338             
1 49204U 21083U   25251.75655066 -.00000087  00000+0 -24498-3 0  9994
2 49204  87.9291 330.5678 0001582  96.9265 263.2049 13.20773023199667
ONEWEB-0339             
1 49205U 21083V   25251.87725217  .00000242  00000+0  62880-3 0  9992
2 49205  87.9027  16.1195 0001675 102.6571 257.4745 13.13470644193964
